[{"OBJECT_NAME":"STARLINK-4457","OBJECT_ID":"2022-105R","EPOCH":"2026-03-09T15:04:12.549792","MEAN_MOTION":15.05645896,"ECCENTRICITY":0.0002008,"INCLINATION":97.6034,"RA_OF_ASC_NODE":311.2025,"ARG_OF_PERICENTER":88.0531,"MEAN_ANOMALY":272.0926,"EPHEMERIS_TYPE":0,"CLASSIFICATION_TYPE":"U","NORAD_CAT_ID":53663,"ELEMENT_SET_NO":999,"REV_AT_EPOCH":19329,"BSTAR":5.1167e-5,"MEAN_MOTION_DOT":6.77e-6,"MEAN_MOTION_DDOT":0},{"OBJECT_NAME":"SL-24 R\/B","OBJECT_ID":"2014-070F","EPOCH":"2026-03-09T19:25:54.271488","MEAN_MOTION":13.15221204,"ECCENTRICITY":0.09488935,"INCLINATION":97.1704,"RA_OF_ASC_NODE":356.0555,"ARG_OF_PERICENTER":79.027,"MEAN_ANOMALY":291.5995,"EPHEMERIS_TYPE":0,"CLASSIFICATION_TYPE":"U","NORAD_CAT_ID":40303,"ELEMENT_SET_NO":999,"REV_AT_EPOCH":54356,"BSTAR":0.00013695568,"MEAN_MOTION_DOT":5.82e-6,"MEAN_MOTION_DDOT":0}]
